{"type": "FeatureCollection", "features": [ {"type": "Feature", "properties": {"norad_id": 30435, "name": "FENGYUN 1C DEB", "group": "fengyun-1c-debris", "lat": -55.938926777099695, "lon": -8.71834620598305, "alt_km": 1110.8325375568365, "timestamp": "2025-12-17T15:50:10.055960+00:00", "meta": {"OBJECT_NAME": "FENGYUN 1C DEB", "OBJECT_ID": "1999-025AEW", "EPOCH": "2025-12-16T22:59:03.302304", "MEAN_MOTION": 13.79635386, "ECCENTRICITY": 0.02080197, "INCLINATION": 99.0167, "RA_OF_ASC_NODE": 337.029, "ARG_OF_PERICENTER": 100.5957, "MEAN_ANOMALY": 317.908, "EPHEMERIS_TYPE": 0, "CLASSIFICATION_TYPE": "U", "NORAD_CAT_ID": 30435, "ELEMENT_SET_NO": 999, "REV_AT_EPOCH": 94218, "BSTAR": 0.0013236478, "MEAN_MOTION_DOT": 1.567e-05, "MEAN_MOTION_DDOT": 0}, "tle": {"line1": "1 30435U 99025AEW 25350.95767711  .00001567  00000+0  13236-2 0  9993", "line2": "2 30435  99.0167 337.0290 0208019 100.5957 317.9080 13.79635386942183"}}, "geometry": {"type": "Point", "coordinates": [-8.71834620598305, -55.938926777099695]}}, {"type": "Feature", "properties": {"norad_id": 30436, "name": "FENGYUN 1C DEB", "group": "fengyun-1c-debris", "lat": 27.60225175587006, "lon": -119.00073922606316, "alt_km": 816.9449573120764, "timestamp": "2025-12-17T15:50:10.055971+00:00", "meta": {"OBJECT_NAME": "FENGYUN 1C DEB", "OBJECT_ID": "1999-025AEX", "EPOCH": "2025-12-17T06:08:49.980192", "MEAN_MOTION": 14.22327894, "ECCENTRICITY": 0.00976597, "INCLINATION": 98.4269, "RA_OF_ASC_NODE": 245.0585, "ARG_OF_PERICENTER": 120.3024, "MEAN_ANOMALY": 2.8998, "EPHEMERIS_TYPE": 0, "CLASSIFICATION_TYPE": "U", "NORAD_CAT_ID": 30436, "ELEMENT_SET_NO": 999, "REV_AT_EPOCH": 96501, "BSTAR": 0.001523729, "MEAN_MOTION_DOT": 3.518e-05, "MEAN_MOTION_DDOT": 0}, "tle": {"line1": "1 30436U 99025AEX 25351.25613403  .00003518  00000+0  15237-2 0  9997", "line2": "2 30436  98.4269 245.0585 0097659 120.3024   2.8998 14.22327894965012"}}, "geometry": {"type": "Point", "coordinates": [-119.00073922606316, 27.60225175587006]}}, {"type": "Feature", "properties": {"norad_id": 30437, "name": "FENGYUN 1C DEB", "group": "fengyun-1c-debris", "lat": -19.25955141113258, "lon": -171.1098894350334, "alt_km": 618.0429660261616, "timestamp": "2025-12-17T15:50:10.055981+00:00", "meta": {"OBJECT_NAME": "FENGYUN 1C DEB", "OBJECT_ID": "1999-025AEY", "EPOCH": "2025-12-17T07:09:23.154624", "MEAN_MOTION": 14.88232396, "ECCENTRICITY": 0.00357853, "INCLINATION": 98.9217, "RA_OF_ASC_NODE": 11.6299, "ARG_OF_PERICENTER": 88.0141, "MEAN_ANOMALY": 334.5303, "EPHEMERIS_TYPE": 0, "CLASSIFICATION_TYPE": "U", "NORAD_CAT_ID": 30437, "ELEMENT_SET_NO": 999, "REV_AT_EPOCH": 99255, "BSTAR": 0.0018137365, "MEAN_MOTION_DOT": 0.00016908, "MEAN_MOTION_DDOT": 0}, "tle": {"line1": "1 30437U 99025AEY 25351.29818466  .00016908  00000+0  18137-2 0  9997", "line2": "2 30437  98.9217  11.6299 0035785  88.0141 334.5303 14.88232396992550"}}, "geometry": {"type": "Point", "coordinates": [-171.1098894350334, -19.25955141113258]}}, {"type": "Feature", "properties": {"norad_id": 30438, "name": "FENGYUN 1C DEB", "group": "fengyun-1c-debris", "lat": 67.7076070663971, "lon": -149.51921245518278, "alt_km": 868.4926450999556, "timestamp": "2025-12-17T15:50:10.055992+00:00", "meta": {"OBJECT_NAME": "FENGYUN 1C DEB", "OBJECT_ID": "1999-025AEZ", "EPOCH": "2025-12-16T11:42:06.779808", "MEAN_MOTION": 13.92113969, "ECCENTRICITY": 0.01348019, "INCLINATION": 98.7504, "RA_OF_ASC_NODE": 7.3078, "ARG_OF_PERICENTER": 176.5162, "MEAN_ANOMALY": 183.697, "EPHEMERIS_TYPE": 0, "CLASSIFICATION_TYPE": "U", "NORAD_CAT_ID": 30438, "ELEMENT_SET_NO": 999, "REV_AT_EPOCH": 95358, "BSTAR": 0.0012786795, "MEAN_MOTION_DOT": 1.722e-05, "MEAN_MOTION_DDOT": 0}, "tle": {"line1": "1 30438U 99025AEZ 25350.48757847  .00001722  00000+0  12787-2 0  9996", "line2": "2 30438  98.7504   7.3078 0134801 176.5162 183.6970 13.92113969953581"}}, "geometry": {"type": "Point", "coordinates": [-149.51921245518278, 67.7076070663971]}}, {"type": "Feature", "properties": {"norad_id": 30439, "name": "FENGYUN 1C DEB", "group": "fengyun-1c-debris", "lat": -23.56386829659356, "lon": 7.081498229911299, "alt_km": 841.5740422359577, "timestamp": "2025-12-17T15:50:10.056002+00:00", "meta": {"OBJECT_NAME": "FENGYUN 1C DEB", "OBJECT_ID": "1999-025AFA", "EPOCH": "2025-12-17T07:29:51.868032", "MEAN_MOTION": 14.08848498, "ECCENTRICITY": 0.00385362, "INCLINATION": 98.7496, "RA_OF_ASC_NODE": 2.893, "ARG_OF_PERICENTER": 323.7095, "MEAN_ANOMALY": 51.2931, "EPHEMERIS_TYPE": 0, "CLASSIFICATION_TYPE": "U", "NORAD_CAT_ID": 30439, "ELEMENT_SET_NO": 999, "REV_AT_EPOCH": 96856, "BSTAR": 0.00047285852, "MEAN_MOTION_DOT": 7.79e-06, "MEAN_MOTION_DDOT": 0}, "tle": {"line1": "1 30439U 99025AFA 25351.31240588  .00000779  00000+0  47286-3 0  9993", "line2": "2 30439  98.7496   2.8930 0038536 323.7095  51.2931 14.08848498968569"}}, "geometry": {"type": "Point", "coordinates": [7.081498229911299, -23.56386829659356]}}, {"type": "Feature", "properties": {"norad_id": 30441, "name": "FENGYUN 1C DEB", "group": "fengyun-1c-debris", "lat": 27.803593492193, "lon": -94.29401223136853, "alt_km": 975.1885824415313, "timestamp": "2025-12-17T15:50:10.056012+00:00", "meta": {"OBJECT_NAME": "FENGYUN 1C DEB", "OBJECT_ID": "1999-025AFC", "EPOCH": "2025-12-17T04:37:28.862688", "MEAN_MOTION": 13.77684361, "ECCENTRICITY": 0.0184012, "INCLINATION": 99.1347, "RA_OF_ASC_NODE": 80.3896, "ARG_OF_PERICENTER": 245.8556, "MEAN_ANOMALY": 112.3258, "EPHEMERIS_TYPE": 0, "CLASSIFICATION_TYPE": "U", "NORAD_CAT_ID": 30441, "ELEMENT_SET_NO": 999, "REV_AT_EPOCH": 94931, "BSTAR": 0.00053790056, "MEAN_MOTION_DOT": 5.65e-06, "MEAN_MOTION_DDOT": 0}, "tle": {"line1": "1 30441U 99025AFC 25351.19269517  .00000565  00000+0  53790-3 0  9995", "line2": "2 30441  99.1347  80.3896 0184012 245.8556 112.3258 13.77684361949316"}}, "geometry": {"type": "Point", "coordinates": [-94.29401223136853, 27.803593492193]}}, {"type": "Feature", "properties": {"norad_id": 30442, "name": "FENGYUN 1C DEB", "group": "fengyun-1c-debris", "lat": 24.03317858289333, "lon": 81.34357121634147, "alt_km": 809.8506193167459, "timestamp": "2025-12-17T15:50:10.056022+00:00", "meta": {"OBJECT_NAME": "FENGYUN 1C DEB", "OBJECT_ID": "1999-025AFD", "EPOCH": "2025-12-17T05:38:14.123616", "MEAN_MOTION": 14.28656262, "ECCENTRICITY": 0.00552043, "INCLINATION": 98.8666, "RA_OF_ASC_NODE": 84.9033, "ARG_OF_PERICENTER": 274.271, "MEAN_ANOMALY": 85.2163, "EPHEMERIS_TYPE": 0, "CLASSIFICATION_TYPE": "U", "NORAD_CAT_ID": 30442, "ELEMENT_SET_NO": 999, "REV_AT_EPOCH": 97226, "BSTAR": 0.0016136184, "MEAN_MOTION_DOT": 4.077e-05, "MEAN_MOTION_DDOT": 0}, "tle": {"line1": "1 30442U 99025AFD 25351.23488569  .00004077  00000+0  16136-2 0  9995", "line2": "2 30442  98.8666  84.9033 0055204 274.2710  85.2163 14.28656262972267"}}, "geometry": {"type": "Point", "coordinates": [81.34357121634147, 24.03317858289333]}}, {"type": "Feature", "properties": {"norad_id": 30443, "name": "FENGYUN 1C DEB", "group": "fengyun-1c-debris", "lat": -25.6889297383695, "lon": -56.79064979973028, "alt_km": 755.1631519650655, "timestamp": "2025-12-17T15:50:10.056033+00:00", "meta": {"OBJECT_NAME": "FENGYUN 1C DEB", "OBJECT_ID": "1999-025AFE", "EPOCH": "2025-12-17T07:36:00.237888", "MEAN_MOTION": 14.36857503, "ECCENTRICITY": 0.00273689, "INCLINATION": 98.8481, "RA_OF_ASC_NODE": 298.5596, "ARG_OF_PERICENTER": 326.0896, "MEAN_ANOMALY": 33.8539, "EPHEMERIS_TYPE": 0, "CLASSIFICATION_TYPE": "U", "NORAD_CAT_ID": 30443, "ELEMENT_SET_NO": 999, "REV_AT_EPOCH": 97499, "BSTAR": 0.0018260621, "MEAN_MOTION_DOT": 5.378e-05, "MEAN_MOTION_DDOT": 0}, "tle": {"line1": "1 30443U 99025AFE 25351.31666942  .00005378  00000+0  18261-2 0  9994", "line2": "2 30443  98.8481 298.5596 0027368 326.0896  33.8539 14.36857503974999"}}, "geometry": {"type": "Point", "coordinates": [-56.79064979973028, -25.6889297383695]}}, {"type": "Feature", "properties": {"norad_id": 30445, "name": "FENGYUN 1C DEB", "group": "fengyun-1c-debris", "lat": 12.42314690821571, "lon": 125.20529570559465, "alt_km": 802.8937033932634, "timestamp": "2025-12-17T15:50:10.056044+00:00", "meta": {"OBJECT_NAME": "FENGYUN 1C DEB", "OBJECT_ID": "1999-025AFG", "EPOCH": "2025-12-17T06:46:50.534976", "MEAN_MOTION": 14.48772516, "ECCENTRICITY": 0.0105664, "INCLINATION": 98.8354, "RA_OF_ASC_NODE": 302.847, "ARG_OF_PERICENTER": 4.7291, "MEAN_ANOMALY": 355.4874, "EPHEMERIS_TYPE": 0, "CLASSIFICATION_TYPE": "U", "NORAD_CAT_ID": 30445, "ELEMENT_SET_NO": 999, "REV_AT_EPOCH": 99250, "BSTAR": 0.00060298575, "MEAN_MOTION_DOT": 2.389e-05, "MEAN_MOTION_DDOT": 0}, "tle": {"line1": "1 30445U 99025AFG 25351.28252934  .00002389  00000+0  60299-3 0  9992", "line2": "2 30445  98.8354 302.8470 0105664   4.7291 355.4874 14.48772516992500"}}, "geometry": {"type": "Point", "coordinates": [125.20529570559465, 12.42314690821571]}}, {"type": "Feature", "properties": {"norad_id": 30446, "name": "FENGYUN 1C DEB", "group": "fengyun-1c-debris", "lat": -54.84461122059309, "lon": -118.20082127597409, "alt_km": 771.4776568153165, "timestamp": "2025-12-17T15:50:10.056054+00:00", "meta": {"OBJECT_NAME": "FENGYUN 1C DEB", "OBJECT_ID": "1999-025AFH", "EPOCH": "2025-12-17T04:46:42.196800", "MEAN_MOTION": 14.4477691, "ECCENTRICITY": 0.00345701, "INCLINATION": 98.614, "RA_OF_ASC_NODE": 73.7619, "ARG_OF_PERICENTER": 85.0703, "MEAN_ANOMALY": 275.4433, "EPHEMERIS_TYPE": 0, "CLASSIFICATION_TYPE": "U", "NORAD_CAT_ID": 30446, "ELEMENT_SET_NO": 999, "REV_AT_EPOCH": 98241, "BSTAR": 0.001306954, "MEAN_MOTION_DOT": 4.529e-05, "MEAN_MOTION_DDOT": 0}, "tle": {"line1": "1 30446U 99025AFH 25351.19909950  .00004529  00000+0  13070-2 0  9992", "line2": "2 30446  98.6140  73.7619 0034570  85.0703 275.4433 14.44776910982417"}}, "geometry": {"type": "Point", "coordinates": [-118.20082127597409, -54.84461122059309]}}]}